{"type": "FeatureCollection", "features": [ {"type": "Feature", "properties": {"norad_id": 30770, "name": "FENGYUN 1C DEB", "group": "fengyun-1c-debris", "lat": -28.60518799223855, "lon": -0.6284533342101467, "alt_km": 839.9199723000265, "timestamp": "2025-12-14T14:39:29.649284+00:00", "meta": {"OBJECT_NAME": "FENGYUN 1C DEB", "OBJECT_ID": "1999-025AUG", "EPOCH": "2025-12-13T23:47:05.286624", "MEAN_MOTION": 14.15685554, "ECCENTRICITY": 0.00127729, "INCLINATION": 98.6545, "RA_OF_ASC_NODE": 354.0055, "ARG_OF_PERICENTER": 282.258, "MEAN_ANOMALY": 132.129, "EPHEMERIS_TYPE": 0, "CLASSIFICATION_TYPE": "U", "NORAD_CAT_ID": 30770, "ELEMENT_SET_NO": 999, "REV_AT_EPOCH": 96925, "BSTAR": 0.00039023981, "MEAN_MOTION_DOT": 7.23e-06, "MEAN_MOTION_DDOT": 0}, "tle": {"line1": "1 30770U 99025AUG 25347.99103341  .00000723  00000+0  39024-3 0  9995", "line2": "2 30770  98.6545 354.0055 0012772 282.2580 132.1290 14.15685554969257"}}, "geometry": {"type": "Point", "coordinates": [-0.6284533342101467, -28.60518799223855]}}, {"type": "Feature", "properties": {"norad_id": 30771, "name": "FENGYUN 1C DEB", "group": "fengyun-1c-debris", "lat": -36.57482275769645, "lon": 137.23461763093295, "alt_km": 750.6109378670862, "timestamp": "2025-12-14T14:39:29.649294+00:00", "meta": {"OBJECT_NAME": "FENGYUN 1C DEB", "OBJECT_ID": "1999-025AUH", "EPOCH": "2025-12-13T21:00:51.865056", "MEAN_MOTION": 14.43200135, "ECCENTRICITY": 0.00230008, "INCLINATION": 98.9055, "RA_OF_ASC_NODE": 323.1475, "ARG_OF_PERICENTER": 296.6619, "MEAN_ANOMALY": 63.2214, "EPHEMERIS_TYPE": 0, "CLASSIFICATION_TYPE": "U", "NORAD_CAT_ID": 30771, "ELEMENT_SET_NO": 999, "REV_AT_EPOCH": 97080, "BSTAR": 0.0029190176, "MEAN_MOTION_DOT": 9.811e-05, "MEAN_MOTION_DDOT": 0}, "tle": {"line1": "1 30771U 99025AUH 25347.87560029  .00009811  00000+0  29190-2 0  9992", "line2": "2 30771  98.9055 323.1475 0023000 296.6619  63.2214 14.43200135970800"}}, "geometry": {"type": "Point", "coordinates": [137.23461763093295, -36.57482275769645]}}, {"type": "Feature", "properties": {"norad_id": 30802, "name": "FENGYUN 1C DEB", "group": "fengyun-1c-debris", "lat": -80.67399839713896, "lon": 146.75455729147362, "alt_km": 797.9673016346023, "timestamp": "2025-12-14T14:39:29.649304+00:00", "meta": {"OBJECT_NAME": "FENGYUN 1C DEB", "OBJECT_ID": "1999-025AUL", "EPOCH": "2025-12-13T19:31:58.596096", "MEAN_MOTION": 14.32467129, "ECCENTRICITY": 0.00180002, "INCLINATION": 98.837, "RA_OF_ASC_NODE": 74.6245, "ARG_OF_PERICENTER": 39.2228, "MEAN_ANOMALY": 86.7991, "EPHEMERIS_TYPE": 0, "CLASSIFICATION_TYPE": "U", "NORAD_CAT_ID": 30802, "ELEMENT_SET_NO": 999, "REV_AT_EPOCH": 97218, "BSTAR": 0.0020225716, "MEAN_MOTION_DOT": 5.445e-05, "MEAN_MOTION_DDOT": 0}, "tle": {"line1": "1 30802U 99025AUL 25347.81387264  .00005445  00000+0  20226-2 0  9999", "line2": "2 30802  98.8370  74.6245 0018000  39.2228  86.7991 14.32467129972189"}}, "geometry": {"type": "Point", "coordinates": [146.75455729147362, -80.67399839713896]}}, {"type": "Feature", "properties": {"norad_id": 30803, "name": "FENGYUN 1C DEB", "group": "fengyun-1c-debris", "lat": 80.14584502146955, "lon": -88.46685459055212, "alt_km": 864.1132951464933, "timestamp": "2025-12-14T14:39:29.649314+00:00", "meta": {"OBJECT_NAME": "FENGYUN 1C DEB", "OBJECT_ID": "1999-025AUM", "EPOCH": "2025-12-13T13:25:25.157280", "MEAN_MOTION": 14.11251849, "ECCENTRICITY": 0.01074504, "INCLINATION": 99.2465, "RA_OF_ASC_NODE": 20.7641, "ARG_OF_PERICENTER": 199.18, "MEAN_ANOMALY": 316.4932, "EPHEMERIS_TYPE": 0, "CLASSIFICATION_TYPE": "U", "NORAD_CAT_ID": 30803, "ELEMENT_SET_NO": 999, "REV_AT_EPOCH": 96010, "BSTAR": 0.0018555715, "MEAN_MOTION_DOT": 3.49e-05, "MEAN_MOTION_DDOT": 0}, "tle": {"line1": "1 30803U 99025AUM 25347.55931895  .00003490  00000+0  18556-2 0  9997", "line2": "2 30803  99.2465  20.7641 0107450 199.1800 316.4932 14.11251849960106"}}, "geometry": {"type": "Point", "coordinates": [-88.46685459055212, 80.14584502146955]}}, {"type": "Feature", "properties": {"norad_id": 30804, "name": "FENGYUN 1C DEB", "group": "fengyun-1c-debris", "lat": 52.12546354995107, "lon": 42.54741453221615, "alt_km": 792.0044714776686, "timestamp": "2025-12-14T14:39:29.649324+00:00", "meta": {"OBJECT_NAME": "FENGYUN 1C DEB", "OBJECT_ID": "1999-025AUN", "EPOCH": "2025-12-13T16:00:06.602976", "MEAN_MOTION": 14.5461593, "ECCENTRICITY": 0.0185571, "INCLINATION": 98.8951, "RA_OF_ASC_NODE": 53.1599, "ARG_OF_PERICENTER": 187.746, "MEAN_ANOMALY": 326.3488, "EPHEMERIS_TYPE": 0, "CLASSIFICATION_TYPE": "U", "NORAD_CAT_ID": 30804, "ELEMENT_SET_NO": 999, "REV_AT_EPOCH": 99490, "BSTAR": 0.0006643284, "MEAN_MOTION_DOT": 3.513e-05, "MEAN_MOTION_DDOT": 0}, "tle": {"line1": "1 30804U 99025AUN 25347.66674309  .00003513  00000+0  66433-3 0  9998", "line2": "2 30804  98.8951  53.1599 0185571 187.7460 326.3488 14.54615930994902"}}, "geometry": {"type": "Point", "coordinates": [42.54741453221615, 52.12546354995107]}}, {"type": "Feature", "properties": {"norad_id": 30805, "name": "FENGYUN 1C DEB", "group": "fengyun-1c-debris", "lat": -34.792668527563, "lon": -154.98204779474668, "alt_km": 867.1127369549267, "timestamp": "2025-12-14T14:39:29.649334+00:00", "meta": {"OBJECT_NAME": "FENGYUN 1C DEB", "OBJECT_ID": "1999-025AUP", "EPOCH": "2025-12-13T21:20:37.304160", "MEAN_MOTION": 14.02897776, "ECCENTRICITY": 0.00698643, "INCLINATION": 98.8204, "RA_OF_ASC_NODE": 30.5125, "ARG_OF_PERICENTER": 280.8038, "MEAN_ANOMALY": 253.5131, "EPHEMERIS_TYPE": 0, "CLASSIFICATION_TYPE": "U", "NORAD_CAT_ID": 30805, "ELEMENT_SET_NO": 999, "REV_AT_EPOCH": 95976, "BSTAR": 0.0010075911, "MEAN_MOTION_DOT": 1.552e-05, "MEAN_MOTION_DDOT": 0}, "tle": {"line1": "1 30805U 99025AUP 25347.88932065  .00001552  00000+0  10076-2 0  9991", "line2": "2 30805  98.8204  30.5125 0069864 280.8038 253.5131 14.02897776959764"}}, "geometry": {"type": "Point", "coordinates": [-154.98204779474668, -34.792668527563]}}, {"type": "Feature", "properties": {"norad_id": 30806, "name": "FENGYUN 1C DEB", "group": "fengyun-1c-debris", "lat": 8.938724849223371, "lon": 13.600892270533215, "alt_km": 1083.0658771739681, "timestamp": "2025-12-14T14:39:29.649345+00:00", "meta": {"OBJECT_NAME": "FENGYUN 1C DEB", "OBJECT_ID": "1999-025AUQ", "EPOCH": "2025-12-13T20:11:38.877216", "MEAN_MOTION": 13.70419863, "ECCENTRICITY": 0.02684358, "INCLINATION": 99.0363, "RA_OF_ASC_NODE": 14.3113, "ARG_OF_PERICENTER": 127.4786, "MEAN_ANOMALY": 50.9509, "EPHEMERIS_TYPE": 0, "CLASSIFICATION_TYPE": "U", "NORAD_CAT_ID": 30806, "ELEMENT_SET_NO": 999, "REV_AT_EPOCH": 93710, "BSTAR": 0.00095959202, "MEAN_MOTION_DOT": 1.056e-05, "MEAN_MOTION_DDOT": 0}, "tle": {"line1": "1 30806U 99025AUQ 25347.84142219  .00001056  00000+0  95959-3 0  9995", "line2": "2 30806  99.0363  14.3113 0268435 127.4786  50.9509 13.70419863937105"}}, "geometry": {"type": "Point", "coordinates": [13.600892270533215, 8.938724849223371]}}, {"type": "Feature", "properties": {"norad_id": 30809, "name": "FENGYUN 1C DEB", "group": "fengyun-1c-debris", "lat": -38.130312695097274, "lon": -109.3072945081277, "alt_km": 777.3777525898204, "timestamp": "2025-12-14T14:39:29.649358+00:00", "meta": {"OBJECT_NAME": "FENGYUN 1C DEB", "OBJECT_ID": "1999-025AUT", "EPOCH": "2025-12-13T22:31:12.238176", "MEAN_MOTION": 14.29245282, "ECCENTRICITY": 0.00523891, "INCLINATION": 98.789, "RA_OF_ASC_NODE": 76.9901, "ARG_OF_PERICENTER": 168.4712, "MEAN_ANOMALY": 191.7682, "EPHEMERIS_TYPE": 0, "CLASSIFICATION_TYPE": "U", "NORAD_CAT_ID": 30809, "ELEMENT_SET_NO": 999, "REV_AT_EPOCH": 97104, "BSTAR": 0.0021044759, "MEAN_MOTION_DOT": 5.388e-05, "MEAN_MOTION_DDOT": 0}, "tle": {"line1": "1 30809U 99025AUT 25347.93833609  .00005388  00000+0  21045-2 0  9994", "line2": "2 30809  98.7890  76.9901 0052389 168.4712 191.7682 14.29245282971045"}}, "geometry": {"type": "Point", "coordinates": [-109.3072945081277, -38.130312695097274]}}, {"type": "Feature", "properties": {"norad_id": 30810, "name": "FENGYUN 1C DEB", "group": "fengyun-1c-debris", "lat": 75.21621677043152, "lon": 125.18069657419053, "alt_km": 756.6628312411976, "timestamp": "2025-12-14T14:39:29.649369+00:00", "meta": {"OBJECT_NAME": "FENGYUN 1C DEB", "OBJECT_ID": "1999-025AUU", "EPOCH": "2025-12-13T17:46:43.099104", "MEAN_MOTION": 14.0415823, "ECCENTRICITY": 0.01797968, "INCLINATION": 98.6629, "RA_OF_ASC_NODE": 159.6381, "ARG_OF_PERICENTER": 52.278, "MEAN_ANOMALY": 309.4533, "EPHEMERIS_TYPE": 0, "CLASSIFICATION_TYPE": "U", "NORAD_CAT_ID": 30810, "ELEMENT_SET_NO": 999, "REV_AT_EPOCH": 94397, "BSTAR": 0.0030588425, "MEAN_MOTION_DOT": 5.563e-05, "MEAN_MOTION_DDOT": 0}, "tle": {"line1": "1 30810U 99025AUU 25347.74077661  .00005563  00000+0  30588-2 0  9990", "line2": "2 30810  98.6629 159.6381 0179796  52.2780 309.4533 14.04158230943977"}}, "geometry": {"type": "Point", "coordinates": [125.18069657419053, 75.21621677043152]}}, {"type": "Feature", "properties": {"norad_id": 30811, "name": "FENGYUN 1C DEB", "group": "fengyun-1c-debris", "lat": 76.54643085668025, "lon": -12.472177757925897, "alt_km": 858.0053793386141, "timestamp": "2025-12-14T14:39:29.649379+00:00", "meta": {"OBJECT_NAME": "FENGYUN 1C DEB", "OBJECT_ID": "1999-025AUV", "EPOCH": "2025-12-11T01:39:11.047104", "MEAN_MOTION": 13.61834436, "ECCENTRICITY": 0.02784933, "INCLINATION": 98.7829, "RA_OF_ASC_NODE": 24.594, "ARG_OF_PERICENTER": 50.5758, "MEAN_ANOMALY": 311.9684, "EPHEMERIS_TYPE": 0, "CLASSIFICATION_TYPE": "U", "NORAD_CAT_ID": 30811, "ELEMENT_SET_NO": 999, "REV_AT_EPOCH": 92844, "BSTAR": 0.0021907005, "MEAN_MOTION_DOT": 2.145e-05, "MEAN_MOTION_DDOT": 0}, "tle": {"line1": "1 30811U 99025AUV 25345.06887786  .00002145  00000+0  21907-2 0  9999", "line2": "2 30811  98.7829  24.5940 0278493  50.5758 311.9684 13.61834436928443"}}, "geometry": {"type": "Point", "coordinates": [-12.472177757925897, 76.54643085668025]}}]}